DUBAISAT-1              
1 35682U 09041B   26060.36408955  .00001571  00000+0  24147-3 0  9996
2 35682  97.9860 194.9281 0011516  61.1335 299.1028 14.74878675889207
OCEANSAT-2              
1 35931U 09051A   26060.54104127 -.00000033  00000+0  28224-5 0  9993
2 35931  98.2268  58.1735 0016869 175.4040 184.7284 13.99635669864276
WORLDVIEW-2 (WV-2)      
1 35946U 09055A   26060.44615130  .00000184  00000+0  75371-4 0  9993
2 35946  98.4710 135.4288 0004591 167.1977 192.9327 14.37906520860167
SMOS                    
1 36036U 09059A   26060.47054821  .00000391  00000+0  13857-3 0  9995
2 36036  98.4424 249.3667 0001072  81.3156 278.8153 14.39753051857958
YAOGAN-7                
1 36110U 09069A   26060.23907644  .00000900  00000+0  13183-3 0  9991
2 36110  98.0226 306.6900 0025393  30.1544 330.1121 14.77875628873681
TANDEM-X                
1 36605U 10030A   26059.57492012  .00000779  00000+0  40296-4 0  9993
2 36605  97.4471  68.8269 0001814  95.5178 264.6264 15.19151654870151
CARTOSAT-2B             
1 36795U 10035A   26060.47343411  .00000015  00000+0  89314-5 0  9995
2 36795  97.8363 111.9431 0011533 174.6989 185.4347 14.78719654843936
YAOGAN-10               
1 36834U 10038A   26060.57134159  .00002296  00000+0  27575-3 0  9992
2 36834  97.9089  84.8045 0001619  93.3896  61.1332 14.84974099841231
COSMO-SKYMED 4          
1 37216U 10060A   26060.49440571  .00000498  00000+0  69077-4 0  9997
2 37216  97.8858 245.6492 0001410  84.5490 275.5884 14.82149847828616
RESOURCESAT-2           
1 37387U 11015A   26060.40635559 -.00000075  00000+0 -13834-4 0  9993
2 37387  98.7739 128.5453 0006022 160.6419 199.4988 14.21486748770869
HAIYANG-2A              
1 37781U 11043A   26060.51244659 -.00000018  00000+0  25262-4 0  9995
2 37781  99.3411  65.2424 0000583 296.5332  63.5759 13.78565771731842
RASAT                   
1 37791U 11044D   26060.50426368  .00000571  00000+0  10783-3 0  9999
2 37791  98.0567 153.5719 0020808 170.2609 318.1948 14.68041042777384
SRMSAT                  
1 37841U 11058D   26060.07253807  .00000449  00000+0  99838-4 0  9991
2 37841  19.9732 353.8578 0011897  94.9480   9.1184 14.11543719742524
PLEIADES 1A             
1 38012U 11076F   26060.50142542  .00000323  00000+0  79461-4 0  9994
2 38012  98.2066 137.0182 0001662  94.2324  30.8178 14.58531137756292
ZIYUAN 1-02C (ZY 1-02C) 
1 38038U 11079A   26060.52616366  .00000735  00000+0  25657-3 0  9991
2 38038  98.4197 130.0428 0005230 270.0767 207.0106 14.38114185743735
ARIRANG-3 (KOMPSAT-3)   
1 38338U 12025B   26060.52443550  .00000705  00000+0  14951-3 0  9991
2 38338  98.1157  19.9240 0006839  91.6129 268.5856 14.62077126735615
EXACTVIEW-1 (ADS-1B)    
1 38709U 12039C   26060.31808262  .00000180  00000+0  96933-4 0  9998
2 38709  98.9634 175.3571 0011829 120.4629 239.7719 14.24946998707347
SPOT 6                  
1 38755U 12047A   26060.49268734  .00000488  00000+0  11496-3 0  9992
2 38755  98.2245 129.0104 0001451  95.8925 264.2439 14.58534241717356
PLEIADES 1B             
1 39019U 12068A   26060.51187179  .00000510  00000+0  11939-3 0  9993
2 39019  98.2036 137.0150 0001634  90.5305 269.6082 14.58575580705154
GOKTURK 2               
1 39030U 12073A   26060.52528358  .00000765  00000+0  11962-3 0  9999
2 39030  97.6891 263.3056 0001305  57.5072 302.6264 14.75421293708632
LANDSAT 8               
1 39084U 13008A   26060.42012163  .00000480  00000+0  11648-3 0  9993
2 39084  98.1935 132.2807 0001243  90.4040 269.7301 14.57122130682203
SARAL                   
1 39086U 13009A   26060.50059714  .00000153  00000+0  72083-4 0  9996
2 39086  98.5551 248.4191 0001018 210.4952 149.6173 14.32825131680187
GAOFEN-1                
1 39150U 13018A   26060.51603912  .00001299  00000+0  19331-3 0  9992
2 39150  97.9198 134.7306 0016028 252.7065 107.2391 14.76532025692354
VNREDSAT 1              
1 39160U 13021B   26060.50884655  .00000677  00000+0  13474-3 0  9992
2 39160  97.9241 117.9786 0001621  88.9576 271.1813 14.65059218684524
ARIRANG-5 (KOMPSAT-5)   
1 39227U 13042A   26060.48907440  .00001952  00000+0  14364-3 0  9990
2 39227  97.6186 248.6861 0003931 130.9383 229.2183 15.04527910687664
SKYSAT-A                
1 39418U 13066C   26060.36480818  .00004355  00000+0  25412-3 0  9996
2 39418  97.3975 113.1666 0020800 330.7689  29.2376 15.12277656672182
DUBAISAT-2              
1 39419U 13066D   26060.50234795  .00006550  00000+0  41451-3 0  9994
2 39419  97.4519  53.5655 0013086  49.6341 310.6028 15.09251214670145
GPM-CORE                
1 39574U 14009C   26060.42280598  .00015205  00000+0  32970-3 0  9990
2 39574  64.9747 309.1759 0012426 264.0109  95.9615 15.44527458681160
SENTINEL-1A             
1 39634U 14016A   26060.50466110 -.00000024  00000+0  47223-5 0  9993
2 39634  98.1818  69.5930 0001354  83.2482 276.8872 14.59199373634312
KAZEOSAT 1              
1 39731U 14024A   26060.47381340  .00000328  00000+0  11297-3 0  9993
2 39731  98.3306 135.5655 0001117  79.6740 280.4576 14.42030589623039
ALOS-2                  
1 39766U 14029A   26060.46768407  .00001593  00000+0  22015-3 0  9993
2 39766  97.9200 159.1841 0001471  95.3822 264.7557 14.79463066635658
