OBJECT_NAME,OBJECT_ID,EPOCH,MEAN_MOTION,ECCENTRICITY,INCLINATION,RA_OF_ASC_NODE,ARG_OF_PERICENTER,MEAN_ANOMALY,EPHEMERIS_TYPE,CLASSIFICATION_TYPE,NORAD_CAT_ID,ELEMENT_SET_NO,REV_AT_EPOCH,BSTAR,MEAN_MOTION_DOT,MEAN_MOTION_DDOT
DUBAISAT-1,2009-041B,2026-03-01T08:44:17.337120,14.74878675,.0011516,97.9860,194.9281,61.1335,299.1028,0,U,35682,999,88920,.24147E-3,.1571E-4,0
OCEANSAT-2,2009-051A,2026-03-01T12:59:05.965728,13.99635669,.0016869,98.2268,58.1735,175.4040,184.7284,0,U,35931,999,86427,.28224E-5,-.33E-6,0
WORLDVIEW-2 (WV-2),2009-055A,2026-03-01T10:42:27.472320,14.37906520,.0004591,98.4710,135.4288,167.1977,192.9327,0,U,35946,999,86016,.75371E-4,.184E-5,0
SMOS,2009-059A,2026-03-01T11:17:35.365344,14.39753051,.0001072,98.4424,249.3667,81.3156,278.8153,0,U,36036,999,85795,.13857E-3,.391E-5,0
YAOGAN-7,2009-069A,2026-03-01T05:44:16.204416,14.77875628,.0025393,98.0226,306.6900,30.1544,330.1121,0,U,36110,999,87368,.13183E-3,.9E-5,0
TANDEM-X,2010-030A,2026-02-28T13:47:53.098368,15.19151654,.00018141,97.4471,68.8269,95.5178,264.6264,0,U,36605,999,87015,.40296245E-4,.779E-5,0
CARTOSAT-2B,2010-035A,2026-03-01T11:21:44.707104,14.78719654,.0011533,97.8363,111.9431,174.6989,185.4347,0,U,36795,999,84393,.89314E-5,.15E-6,0
YAOGAN-10,2010-038A,2026-03-01T13:42:43.913376,14.84974099,.0001619,97.9089,84.8045,93.3896,61.1332,0,U,36834,999,84123,.27575E-3,.2296E-4,0
COSMO-SKYMED 4,2010-060A,2026-03-01T11:51:56.653344,14.82149847,.000141,97.8858,245.6492,84.5490,275.5884,0,U,37216,999,82861,.69077E-4,.498E-5,0
RESOURCESAT-2,2011-015A,2026-03-01T09:45:09.122976,14.21486748,.0006022,98.7739,128.5453,160.6419,199.4988,0,U,37387,999,77086,-.13834E-4,-.75E-6,0
HAIYANG-2A,2011-043A,2026-03-01T12:17:55.385376,13.78565771,.0000583,99.3411,65.2424,296.5332,63.5759,0,U,37781,999,73184,.25262E-4,-.18E-6,0
RASAT,2011-044D,2026-03-01T12:06:08.381952,14.68041042,.0020808,98.0567,153.5719,170.2609,318.1948,0,U,37791,999,77738,.10783E-3,.571E-5,0
SRMSAT,2011-058D,2026-03-01T01:44:27.289248,14.11543719,.00118979,19.9732,353.8578,94.9480,9.1184,0,U,37841,999,74252,.99837702E-4,.449E-5,0
PLEIADES 1A,2011-076F,2026-03-01T12:02:03.156288,14.58531137,.0001662,98.2066,137.0182,94.2324,30.8178,0,U,38012,999,75629,.79461E-4,.323E-5,0
ZIYUAN 1-02C (ZY 1-02C),2011-079A,2026-03-01T12:37:40.540224,14.38114185,.000523,98.4197,130.0428,270.0767,207.0106,0,U,38038,999,74373,.25657E-3,.735E-5,0
ARIRANG-3 (KOMPSAT-3),2012-025B,2026-03-01T12:35:11.227200,14.62077126,.0006839,98.1157,19.9240,91.6129,268.5856,0,U,38338,999,73561,.14951E-3,.705E-5,0
EXACTVIEW-1 (ADS-1B),2012-039C,2026-03-01T07:38:02.338368,14.24946998,.0011829,98.9634,175.3571,120.4629,239.7719,0,U,38709,999,70734,.96933E-4,.18E-5,0
SPOT 6,2012-047A,2026-03-01T11:49:28.186176,14.58534241,.0001451,98.2245,129.0104,95.8925,264.2439,0,U,38755,999,71735,.11496E-3,.488E-5,0
PLEIADES 1B,2012-068A,2026-03-01T12:17:05.722656,14.58575580,.0001634,98.2036,137.0150,90.5305,269.6082,0,U,39019,999,70515,.11939E-3,.51E-5,0
GOKTURK 2,2012-073A,2026-03-01T12:36:24.501312,14.75421293,.0001305,97.6891,263.3056,57.5072,302.6264,0,U,39030,999,70863,.11962E-3,.765E-5,0
LANDSAT 8,2013-008A,2026-03-01T10:04:58.508832,14.57122130,.0001243,98.1935,132.2807,90.4040,269.7301,0,U,39084,999,68220,.11648E-3,.48E-5,0
SARAL,2013-009A,2026-03-01T12:00:51.592896,14.32825131,.0001018,98.5551,248.4191,210.4952,149.6173,0,U,39086,999,68018,.72083E-4,.153E-5,0
GAOFEN-1,2013-018A,2026-03-01T12:23:05.779968,14.76532025,.0016028,97.9198,134.7306,252.7065,107.2391,0,U,39150,999,69235,.19331E-3,.1299E-4,0
VNREDSAT 1,2013-021B,2026-03-01T12:12:44.341920,14.65059218,.0001621,97.9241,117.9786,88.9576,271.1813,0,U,39160,999,68452,.13474E-3,.677E-5,0
ARIRANG-5 (KOMPSAT-5),2013-042A,2026-03-01T11:44:16.028160,15.04527910,.0003931,97.6186,248.6861,130.9383,229.2183,0,U,39227,999,68766,.14364E-3,.1952E-4,0
SKYSAT-A,2013-066C,2026-03-01T08:45:19.426752,15.12277656,.00208,97.3975,113.1666,330.7689,29.2376,0,U,39418,999,67218,.25412E-3,.4355E-4,0
DUBAISAT-2,2013-066D,2026-03-01T12:03:22.862880,15.09251214,.0013086,97.4519,53.5655,49.6341,310.6028,0,U,39419,999,67014,.41451E-3,.655E-4,0
GPM-CORE,2014-009C,2026-03-01T10:08:50.436672,15.44527458,.0012426,64.9747,309.1759,264.0109,95.9615,0,U,39574,999,68116,.3297E-3,.15205E-3,0
SENTINEL-1A,2014-016A,2026-03-01T12:06:42.719040,14.59199373,.0001354,98.1818,69.5930,83.2482,276.8872,0,U,39634,999,63431,.47223E-5,-.24E-6,0
KAZEOSAT 1,2014-024A,2026-03-01T11:22:17.477760,14.42030589,.0001117,98.3306,135.5655,79.6740,280.4576,0,U,39731,999,62303,.11297E-3,.328E-5,0
ALOS-2,2014-029A,2026-03-01T11:13:27.903648,14.79463066,.0001471,97.9200,159.1841,95.3822,264.7557,0,U,39766,999,63565,.22015E-3,.1593E-4,0
